STARLINK-4361
1 53493U 22099AE  26090.90203773  .02339358  26128-5  65638-3 0  9992
2 53493  97.6416 234.1488 0006677 295.2436  64.8163 16.27770809200632
